ESTCUBE 1               
1 39161U 13021C   22248.91873371  .00000859  00000+0  14108-3 0  9992
2 39161  97.9018 324.0535 0010096 158.3930 201.7657 14.73070546501318
FENGYUN 3C              
1 39260U 13052A   22249.04005562  .00000353  00000+0  19967-3 0  9997
2 39260  98.4502 273.0620 0011862  47.1515 313.0669 14.15941537463327
CASSIOPE                
1 39265U 13055A   22248.87770247  .00016781  00000+0  44001-3 0  9993
2 39265  80.9658 181.9839 0618586  79.6115 287.4154 14.39912198463905
ZACUBE-1 (TSHEPISOSAT)  
1 39417U 13066B   22248.89124889  .00001484  00000+0  18552-3 0  9997
2 39417  97.6442 216.7991 0058526 139.5835 220.9749 14.82552613475043
CINEMA-3 (KHUSAT-2)     
1 39426U 13066L   22248.79590187  .00001148  00000+0  18345-3 0  9991
2 39426  97.8011 185.2499 0102610 339.3472  20.3601 14.70282444471078
TRITON-1                
1 39427U 13066M   22249.04831601  .00001814  00000+0  28841-3 0  9992
2 39427  97.8141 181.3494 0111951   7.8878 352.4056 14.69135863470803
DELFI-N3XT              
1 39428U 13066N   22248.74915606  .00003373  00000+0  52005-3 0  9998
2 39428  97.8140 179.6689 0117717  21.8382 338.7782 14.69446371470320
GOMX-1                  
1 39430U 13066Q   22248.96760219  .00001185  00000+0  21822-3 0  9995
2 39430  97.8002 151.5523 0149650 150.5840 210.3895 14.60328862468047
BRITE-PL1 (LEM)         
1 39431U 13066R   22248.56424782  .00000271  00000+0  67801-4 0  9997
2 39431  97.6936  95.1295 0200995 340.8710  18.5012 14.47402234463956
ICUBE-1                 
1 39432U 13066S   22248.98509489  .00002448  00000+0  24291-3 0  9995
2 39432  97.4713 248.6031 0030746 358.4932   1.6190 14.92286163477920
HUMSAT-D                
1 39433U 13066T   22248.82408445  .00003951  00000+0  36545-3 0  9994
2 39433  97.4511 256.1336 0028098 332.1725  27.7992 14.94793022477226
VELOX-PII               
1 39438U 13066Y   22248.87409302  .00001010  00000+0  13814-3 0  9995
2 39438  97.6997 208.1051 0068706 193.4571 166.4811 14.79071479472896
FIRST-MOVE              
1 39439U 13066Z   22248.41925305  .00003521  00000+0  40810-3 0  9997
2 39439  97.6440 218.9420 0063466 135.7382 224.8934 14.84617828473915
CUBEBUG-2 (LO-74)       
1 39440U 13066AA  22248.86365641  .00001169  00000+0  16438-3 0  9994
2 39440  97.7325 203.0766 0077097 229.9625 129.4805 14.77218317472153
NEE-02 KRYSAOR          
1 39441U 13066AB  22248.39405064  .00000834  00000+0  12295-3 0  9992
2 39441  97.7435 199.7644 0078888 245.9039 113.3905 14.75894496471820
FUNCUBE-1 (AO-73)       
1 39444U 13066AE  22248.84818371  .00001879  00000+0  22716-3 0  9993
2 39444  97.6321 219.1754 0057603 127.6052 233.0412 14.83674856473446
HINCUBE                 
1 39445U 13066AF  22248.84293999  .00001827  00000+0  22214-3 0  9993
2 39445  97.6337 218.9826 0057623 129.8625 230.7679 14.83477716473381
UWE-3                   
1 39446U 13066AG  22248.88180303  .00001212  00000+0  16175-3 0  9999
2 39446  97.6931 209.5105 0068104 185.7387 174.3053 14.79773512472353
AIST-1 (RS-41)          
1 39492U 13078C   22249.18897681  .00001645  00000+0  17367-3 0  9995
2 39492  82.4208 159.3746 0019058 194.4289 165.6412 14.88562497471795
SPROUT                  
1 39770U 14029E   22249.03301491  .00008241  00000+0  82414-3 0  9998
2 39770  97.9496   6.5420 0009039 172.7651 187.3677 14.91680225449676
UNISAT-6                
1 40012U 14033C   22248.50129183  .00001112  00000+0  16836-3 0  9996
2 40012  97.6635  72.2022 0055873 259.5929  99.8980 14.75056416441785
BUGSAT-1 (TITA)         
1 40014U 14033E   22248.95493506  .00001774  00000+0  15844-3 0  9992
2 40014  98.1451 250.6714 0031884 129.4903 230.9146 14.96945942448189
DUCHIFAT-1              
1 40021U 14033M   22248.76052351  .00003927  00000+0  38031-3 0  9993
2 40021  98.0177 200.4644 0013640 129.9981 230.2438 14.93268449446684
NANOSATC-BR1            
1 40024U 14033Q   22249.09756481  .00002506  00000+0  25234-3 0  9991
2 40024  97.9891 193.7451 0012793 135.4715 224.7534 14.92052252446523
QB50P1                  
1 40025U 14033R   22248.80885434  .00001943  00000+0  20325-3 0  9991
2 40025  97.9626 186.8590 0012853 145.9885 214.2159 14.90771521445732
DTUSAT-2                
1 40030U 14033W   22248.75779637  .00001909  00000+0  20260-3 0  9998
2 40030  97.9382 181.8657 0012378 142.9524 217.2550 14.90204173445603
QB50P2                  
1 40032U 14033Y   22248.79867474  .00001812  00000+0  19282-3 0  9996
2 40032  97.9386 181.9212 0012319 143.6762 216.5294 14.90177947445586
POLYITAN-1              
1 40042U 14033AJ  22248.82049672  .00002639  00000+0  27331-3 0  9995
2 40042  97.9726 188.1737 0015099 139.2441 220.9909 14.90847400446131
TIGRISAT                
1 40043U 14033AK  22249.08653024  .00000909  00000+0  13846-3 0  9991
2 40043  97.6575  74.0070 0057696 254.9456 104.5365 14.75130720441810
AISAT                   
1 40054U 14034B   22248.49575855  .00002715  00000+0  36607-3 0  9990
2 40054  98.3653  63.1562 0013319  61.5829 298.6722 14.79982632441310
CANX-4                  
1 40055U 14034C   22248.97087626  .00000676  00000+0  10718-3 0  9997
2 40055  98.3661  48.5957 0015309 101.1371 259.1559 14.75529928440623
CANX-5                  
1 40056U 14034D   22248.43513257  .00000685  00000+0  10856-3 0  9996
2 40056  98.3659  48.0214 0015317 102.8079 257.4842 14.75524695431323
VELOX-I                 
1 40057U 14034E   22249.21018738  .00002313  00000+0  31760-3 0  9995
2 40057  98.3705  65.0147 0011736  75.3220 284.9259 14.79381477441414
METEOR-M 2              
1 40069U 14037A   22249.10323420 -.00000033  00000+0  39348-5 0  9996
2 40069  98.4312 263.2256 0006912  88.6194 271.5780 14.20716736423318
DX1                     
1 40071U 14037C   22249.22661711  .00001342  00000+0  17652-3 0  9995
2 40071  98.3973 121.9398 0009409  63.3837 296.8323 14.81965109441307
UKUBE-1                 
1 40074U 14037F   22249.11296588  .00003128  00000+0  36793-3 0  9993
2 40074  98.3705 133.9678 0005139  40.8026 319.3595 14.85628508442040
FIREBIRD 3              
1 40377U 15003B   22248.63693110  .00021361  00000+0  60240-3 0  9994
2 40377  99.0879 131.5258 0097382 112.7280 248.4284 15.31746547420685
FIREBIRD 4              
1 40378U 15003C   22249.17981183  .00019219  00000+0  54027-3 0  9990
2 40378  99.0882 132.4201 0097319 110.5832 250.5877 15.31875261420786
GRIFEX                  
1 40379U 15003D   22249.15332221  .00011611  00000+0  39758-3 0  9994
2 40379  99.1015 117.3876 0113158 155.7269 204.9353 15.24445311419928
CP10 (EXOCUBE)          
1 40380U 15003E   22249.17925687  .00008733  00000+0  32898-3 0  9991
2 40380  99.1123 109.8329 0121305 181.1431 178.9541 15.20728658419435
DEORBITSAIL             
1 40719U 15032E   22248.64041279  .00002037  00000+0  28411-3 0  9993
2 40719  97.7710 124.2794 0017289 102.1654 258.1496 14.78666892385737
NUDT-PHONESAT           
1 40900U 15049B   22249.20616400  .00037630  00000+0  95745-3 0  9991
2 40900  97.3983 267.8014 0007943  14.3468  50.0120 15.39466726387028
XW-2A                   
1 40903U 15049E   22249.16000721  .00030666  00000+0  43318-3 0  9993
2 40903  97.1709 307.9428 0009595 170.7442 274.1827 15.56456407391802
XW-2C                   
1 40906U 15049H   22249.21286144  .00006766  00000+0  31880-3 0  9992
2 40906  97.4966 252.0250 0015583  79.9892  48.6874 15.19728625385182
XW-2D                   
1 40907U 15049J   22249.25134436  .00007616  00000+0  35085-3 0  9999
2 40907  97.4949 252.1186 0014796  76.5191 338.7948 15.20476521385242
LILACSAT-2              
1 40908U 15049K   22249.21023325  .00004138  00000+0  21724-3 0  9991
2 40908  97.5206 249.0253 0016940  97.5760 323.1640 15.16160892384723
XW-2E                   
1 40909U 15049L   22249.15265579  .00012591  00000+0  51031-3 0  9990
2 40909  97.4676 256.7418 0013241  58.7911   5.3325 15.24708132385702
XW-2F                   
1 40910U 15049M   22249.23920229  .00012754  00000+0  52496-3 0  9998
2 40910  97.4741 255.9804 0014163  58.1423   2.1280 15.24172730385482
XW-2B                   
1 40911U 15049N   22249.21826712  .00008118  00000+0  37509-3 0  9996
2 40911  97.4936 252.6593 0014581  77.6471 345.6706 15.20356891385128
KAITUO 1B               
1 40912U 15049P   22249.14176648  .00014108  00000+0  52604-3 0  9994
2 40912  97.4368 260.2316 0013141  26.0158  42.8245 15.27459865386067
TIANWANG 1A (TW-1A)     
1 40928U 15051D   22249.02908939  .00072196  00000+0  69937-3 0  9995
2 40928  97.0343 271.3022 0008866  90.9428 325.0269 15.66115886390824
LAPAN-A2                
1 40931U 15052B   22248.67969703 -.00000614  00000+0 -17429-3 0  9993
2 40931   6.0003 316.7211 0013338 228.3024 131.5818 14.76849170375221
LQSAT                   
1 40958U 15057A   22249.08292700  .00001034  00000+0  16638-3 0  9995
2 40958  97.7430 291.6616 0019310  63.0678 297.2531 14.73419983371855
ATHENOXAT 1             
1 41168U 15077C   22249.17166620  .00018909  00000+0  75352-3 0  9999
2 41168  14.9859 211.3437 0009366 292.8573 167.0611 15.22615449372620
GALASSIA                
1 41170U 15077E   22248.13713481  .00013874  00000+0  56197-3 0  9992
2 41170  14.9871 210.6020 0010557 307.9597  51.9771 15.21582165372372
VELOX-II                
1 41171U 15077F   22248.31364445  .00009666  00000+0  44308-3 0  9990
2 41171  14.9913 286.8551 0007675 143.1769 216.9080 15.16672686371751
CHUBUSAT-2              
1 41338U 16012B   22249.17039474  .00001828  00000+0  13087-3 0  9993
2 41338  31.0020 229.8589 0013422 233.7889 126.1506 15.01598588359628
CHUBUSAT-3              
1 41339U 16012C   22249.02657465  .00002317  00000+0  16740-3 0  9997
2 41339  31.0113 227.6841 0013748 239.9010 120.0264 15.01659581359607
HORYU-4                 
1 41340U 16012D   22248.56979846  .00003603  00000+0  25006-3 0  9991
2 41340  31.0036 207.3192 0013343 277.4492  82.4628 15.03689254359796
